ONEWEB-0560             
1 55145U 23004F   25074.93344271  .00000030  00000+0  42353-4 0  9993
2 55145  87.9061  66.5982 0002098  77.9029 282.2338 13.18686215109315
ONEWEB-0565             
1 55146U 23004G   25074.92711134  .00000072  00000+0  14931-3 0  9995
2 55146  87.9059  66.6640 0001601  71.3379 288.7926 13.18685704109305
ONEWEB-0567             
1 55147U 23004H   25074.92078966  .00000079  00000+0  16875-3 0  9991
2 55147  87.9058  66.6206 0001896  73.1231 287.0109 13.18686139109304
ONEWEB-0569             
1 55148U 23004J   25074.95223167 -.00000448  00000+0 -12619-2 0  9993
2 55148  87.8922  51.2754 0002331  58.3078 301.8278 13.13466199110021
ONEWEB-0570             
1 55149U 23004K   25074.90813808  .00000060  00000+0  12046-3 0  9999
2 55149  87.9062  66.6255 0001211  88.9267 271.2003 13.18686377109299
ONEWEB-0571             
1 55150U 23004L   25074.90182932  .00000082  00000+0  17450-3 0  9996
2 55150  87.9062  66.6352 0001692  51.5690 308.5594 13.18685563109305
ONEWEB-0572             
1 55151U 23004M   25075.09269103  .00000086  00000+0  18900-3 0  9999
2 55151  87.9007  97.1193 0001714  89.4335 270.6992 13.17648370107154
ONEWEB-0573             
1 55152U 23004N   25074.97138244  .00000072  00000+0  15054-3 0  9999
2 55152  87.9058  66.6290 0001356  57.6325 302.4939 13.18684993109304
